[{"OBJECT_NAME":"TIANQI-21","OBJECT_ID":"2023-135A","EPOCH":"2026-03-09T21:46:55.834752","MEAN_MOTION":14.23085423,"ECCENTRICITY":0.00130966,"INCLINATION":49.9714,"RA_OF_ASC_NODE":210.0306,"ARG_OF_PERICENTER":269.1153,"MEAN_ANOMALY":90.8259,"EPHEMERIS_TYPE":0,"CLASSIFICATION_TYPE":"U","NORAD_CAT_ID":57792,"ELEMENT_SET_NO":999,"REV_AT_EPOCH":13049,"BSTAR":0.00019098246,"MEAN_MOTION_DOT":2.75e-6,"MEAN_MOTION_DDOT":0},{"OBJECT_NAME":"FENGYUN 1C DEB","OBJECT_ID":"1999-025AXK","EPOCH":"2026-03-09T10:56:26.620224","MEAN_MOTION":14.19223972,"ECCENTRICITY":0.01094098,"INCLINATION":98.6166,"RA_OF_ASC_NODE":71.3603,"ARG_OF_PERICENTER":38.7828,"MEAN_ANOMALY":322.1137,"EPHEMERIS_TYPE":0,"CLASSIFICATION_TYPE":"U","NORAD_CAT_ID":30873,"ELEMENT_SET_NO":999,"REV_AT_EPOCH":98422,"BSTAR":0.00026842709,"MEAN_MOTION_DOT":5.55e-6,"MEAN_MOTION_DDOT":0}]
